YOTSUBA-KULOVER         
1 65941U 98067XN  26056.54589447  .00135861  00000+0  85845-3 0  9996
2 65941  51.6225 120.0380 0005898   1.6866 358.4153 15.75652646 21581
BOTAN                   
1 65942U 98067XP  26056.41180295  .00947888  46051-3  15758-2 0  9996
2 65942  51.6130 114.5304 0009497  17.5648 342.5689 16.02344974 21642
E-KAGAKU-1              
1 65943U 98067XQ  26056.42143446  .00138198  00000+0  88187-3 0  9998
2 65943  51.6248 120.7218 0006150   9.7968 350.3151 15.75416927 21566
HRC MONOBLOCK CAMERA    
1 66052U 98067XR  26056.47641583  .00045077  00000+0  53351-3 0  9998
2 66052  51.6277 127.1055 0002998  42.7548 317.3678 15.60796546 20486
HTV-X1                  
1 66174U 25241A   26056.57355615  .00009568  00000+0  18600-3 0  9999
2 66174  51.6319 132.2502 0008347 132.4308 227.7387 15.48286925   511
SZ-21 MODULE            
1 66515U 25246C   26056.01670222  .00030552  00000+0  27555-3 0  9992
2 66515  41.4748 281.3118 0001473 289.6520  70.4162 15.67483837 16081
SHENZHOU-22             
1 66645U 25272A   26056.29872934  .00013605  00000+0  16666-3 0  9990
2 66645  41.4665 283.5238 0005654 192.4411 167.6289 15.60093757267645
SOYUZ-MS 28             
1 66664U 25275A   26056.63810093  .00009551  00000+0  18568-3 0  9998
2 66664  51.6319 131.9312 0008346 132.6774 227.4919 15.48288371554461
DUPLEX                  
1 66906U 98067XS  26056.76710030  .00030007  00000+0  43865-3 0  9998
2 66906  51.6287 129.0468 0001833  76.1992 283.9203 15.55360541 13272
ISS OBJECT XT           
1 66907U 98067XT  26056.46766338  .00113275  00000+0  10980-2 0  9998
2 66907  51.6263 127.7905 0003935  10.9224 349.1856 15.65501529 13269
ISS OBJECT XU           
1 66908U 98067XU  26056.46657884  .00113463  00000+0  10968-2 0  9999
2 66908  51.6256 127.7799 0004014  13.6188 346.4915 15.65570792 13265
SILVERSAT               
1 66909U 98067XV  26056.48675467  .00138005  00000+0  12223-2 0  9994
2 66909  51.6250 127.1648 0004851   9.1983 350.9101 15.67641974 13270
