CCSDS_OMM_VERS = 2.0
CREATION_DATE  = 
ORIGINATOR     = 

OBJECT_NAME    = YOTSUBA-KULOVER
OBJECT_ID      = 1998-067XN
CENTER_NAME    = EARTH
REF_FRAME      = TEME
TIME_SYSTEM    = UTC
MEAN_ELEMENT_THEORY = SGP/SGP4

EPOCH          = 2026-02-25T13:06:05.282208
MEAN_MOTION    = 15.75652646
ECCENTRICITY   = .0005898
INCLINATION    = 51.6225
RA_OF_ASC_NODE = 120.0380
ARG_OF_PERICENTER = 1.6866
MEAN_ANOMALY   = 358.4153

EPHEMERIS_TYPE = 0
CLASSIFICATION_TYPE = U
NORAD_CAT_ID   = 65941
ELEMENT_SET_NO = 999
REV_AT_EPOCH   = 2158
BSTAR          = .85845E-3
MEAN_MOTION_DOT = .135861E-2
MEAN_MOTION_DDOT = 0

CCSDS_OMM_VERS = 2.0
CREATION_DATE  = 
ORIGINATOR     = 

OBJECT_NAME    = BOTAN
OBJECT_ID      = 1998-067XP
CENTER_NAME    = EARTH
REF_FRAME      = TEME
TIME_SYSTEM    = UTC
MEAN_ELEMENT_THEORY = SGP/SGP4

EPOCH          = 2026-02-25T09:52:59.774880
MEAN_MOTION    = 16.02344974
ECCENTRICITY   = .00094975
INCLINATION    = 51.6130
RA_OF_ASC_NODE = 114.5304
ARG_OF_PERICENTER = 17.5648
MEAN_ANOMALY   = 342.5689

EPHEMERIS_TYPE = 0
CLASSIFICATION_TYPE = U
NORAD_CAT_ID   = 65942
ELEMENT_SET_NO = 999
REV_AT_EPOCH   = 2164
BSTAR          = .15757919E-2
MEAN_MOTION_DOT = .947888E-2
MEAN_MOTION_DDOT = .4605071E-3

CCSDS_OMM_VERS = 2.0
CREATION_DATE  = 
ORIGINATOR     = 

OBJECT_NAME    = E-KAGAKU-1
OBJECT_ID      = 1998-067XQ
CENTER_NAME    = EARTH
REF_FRAME      = TEME
TIME_SYSTEM    = UTC
MEAN_ELEMENT_THEORY = SGP/SGP4

EPOCH          = 2026-02-25T10:06:51.937344
MEAN_MOTION    = 15.75416927
ECCENTRICITY   = .00061504
INCLINATION    = 51.6248
RA_OF_ASC_NODE = 120.7218
ARG_OF_PERICENTER = 9.7968
MEAN_ANOMALY   = 350.3151

EPHEMERIS_TYPE = 0
CLASSIFICATION_TYPE = U
NORAD_CAT_ID   = 65943
ELEMENT_SET_NO = 999
REV_AT_EPOCH   = 2156
BSTAR          = .88186563E-3
MEAN_MOTION_DOT = .138198E-2
MEAN_MOTION_DDOT = 0

CCSDS_OMM_VERS = 2.0
CREATION_DATE  = 
ORIGINATOR     = 

OBJECT_NAME    = HRC MONOBLOCK CAMERA
OBJECT_ID      = 1998-067XR
CENTER_NAME    = EARTH
REF_FRAME      = TEME
TIME_SYSTEM    = UTC
MEAN_ELEMENT_THEORY = SGP/SGP4

EPOCH          = 2026-02-25T11:26:02.327712
MEAN_MOTION    = 15.60796546
ECCENTRICITY   = .00029981
INCLINATION    = 51.6277
RA_OF_ASC_NODE = 127.1055
ARG_OF_PERICENTER = 42.7548
MEAN_ANOMALY   = 317.3678

EPHEMERIS_TYPE = 0
CLASSIFICATION_TYPE = U
NORAD_CAT_ID   = 66052
ELEMENT_SET_NO = 999
REV_AT_EPOCH   = 2048
BSTAR          = .53351091E-3
MEAN_MOTION_DOT = .45077E-3
MEAN_MOTION_DDOT = 0

CCSDS_OMM_VERS = 2.0
CREATION_DATE  = 
ORIGINATOR     = 

OBJECT_NAME    = HTV-X1
OBJECT_ID      = 2025-241A
CENTER_NAME    = EARTH
REF_FRAME      = TEME
TIME_SYSTEM    = UTC
MEAN_ELEMENT_THEORY = SGP/SGP4

EPOCH          = 2026-02-25T13:45:55.251360
MEAN_MOTION    = 15.48286925
ECCENTRICITY   = .00083472
INCLINATION    = 51.6319
RA_OF_ASC_NODE = 132.2502
ARG_OF_PERICENTER = 132.4308
MEAN_ANOMALY   = 227.7387

EPHEMERIS_TYPE = 0
CLASSIFICATION_TYPE = U
NORAD_CAT_ID   = 66174
ELEMENT_SET_NO = 999
REV_AT_EPOCH   = 51
BSTAR          = .18599678E-3
MEAN_MOTION_DOT = .9568E-4
MEAN_MOTION_DDOT = 0

CCSDS_OMM_VERS = 2.0
CREATION_DATE  = 
ORIGINATOR     = 

OBJECT_NAME    = SZ-21 MODULE
OBJECT_ID      = 2025-246C
CENTER_NAME    = EARTH
REF_FRAME      = TEME
TIME_SYSTEM    = UTC
MEAN_ELEMENT_THEORY = SGP/SGP4

EPOCH          = 2026-02-25T00:24:03.071808
MEAN_MOTION    = 15.67483837
ECCENTRICITY   = .00014733
INCLINATION    = 41.4748
RA_OF_ASC_NODE = 281.3118
ARG_OF_PERICENTER = 289.6520
MEAN_ANOMALY   = 70.4162

EPHEMERIS_TYPE = 0
CLASSIFICATION_TYPE = U
NORAD_CAT_ID   = 66515
ELEMENT_SET_NO = 999
REV_AT_EPOCH   = 1608
BSTAR          = .2755469E-3
MEAN_MOTION_DOT = .30552E-3
MEAN_MOTION_DDOT = 0

CCSDS_OMM_VERS = 2.0
CREATION_DATE  = 
ORIGINATOR     = 

OBJECT_NAME    = SHENZHOU-22
OBJECT_ID      = 2025-272A
CENTER_NAME    = EARTH
REF_FRAME      = TEME
TIME_SYSTEM    = UTC
MEAN_ELEMENT_THEORY = SGP/SGP4

EPOCH          = 2026-02-25T07:10:10.214976
MEAN_MOTION    = 15.60093757
ECCENTRICITY   = .00056542
INCLINATION    = 41.4665
RA_OF_ASC_NODE = 283.5238
ARG_OF_PERICENTER = 192.4411
MEAN_ANOMALY   = 167.6289

EPHEMERIS_TYPE = 0
CLASSIFICATION_TYPE = U
NORAD_CAT_ID   = 66645
ELEMENT_SET_NO = 999
REV_AT_EPOCH   = 26764
BSTAR          = .16665947E-3
MEAN_MOTION_DOT = .13605E-3
MEAN_MOTION_DDOT = 0

CCSDS_OMM_VERS = 2.0
CREATION_DATE  = 
ORIGINATOR     = 

OBJECT_NAME    = SOYUZ-MS 28
OBJECT_ID      = 2025-275A
CENTER_NAME    = EARTH
REF_FRAME      = TEME
TIME_SYSTEM    = UTC
MEAN_ELEMENT_THEORY = SGP/SGP4

EPOCH          = 2026-02-25T15:18:51.920352
MEAN_MOTION    = 15.48288371
ECCENTRICITY   = .0008346
INCLINATION    = 51.6319
RA_OF_ASC_NODE = 131.9312
ARG_OF_PERICENTER = 132.6774
MEAN_ANOMALY   = 227.4919

EPHEMERIS_TYPE = 0
CLASSIFICATION_TYPE = U
NORAD_CAT_ID   = 66664
ELEMENT_SET_NO = 999
REV_AT_EPOCH   = 55446
BSTAR          = .18568E-3
MEAN_MOTION_DOT = .9551E-4
MEAN_MOTION_DDOT = 0

CCSDS_OMM_VERS = 2.0
CREATION_DATE  = 
ORIGINATOR     = 

OBJECT_NAME    = DUPLEX
OBJECT_ID      = 1998-067XS
CENTER_NAME    = EARTH
REF_FRAME      = TEME
TIME_SYSTEM    = UTC
MEAN_ELEMENT_THEORY = SGP/SGP4

EPOCH          = 2026-02-25T18:24:37.465920
MEAN_MOTION    = 15.55360541
ECCENTRICITY   = .0001833
INCLINATION    = 51.6287
RA_OF_ASC_NODE = 129.0468
ARG_OF_PERICENTER = 76.1992
MEAN_ANOMALY   = 283.9203

EPHEMERIS_TYPE = 0
CLASSIFICATION_TYPE = U
NORAD_CAT_ID   = 66906
ELEMENT_SET_NO = 999
REV_AT_EPOCH   = 1327
BSTAR          = .43865E-3
MEAN_MOTION_DOT = .30007E-3
MEAN_MOTION_DDOT = 0

CCSDS_OMM_VERS = 2.0
CREATION_DATE  = 
ORIGINATOR     = 

OBJECT_NAME    = ISS OBJECT XT
OBJECT_ID      = 1998-067XT
CENTER_NAME    = EARTH
REF_FRAME      = TEME
TIME_SYSTEM    = UTC
MEAN_ELEMENT_THEORY = SGP/SGP4

EPOCH          = 2026-02-25T11:13:26.116032
MEAN_MOTION    = 15.65501529
ECCENTRICITY   = .00039354
INCLINATION    = 51.6263
RA_OF_ASC_NODE = 127.7905
ARG_OF_PERICENTER = 10.9224
MEAN_ANOMALY   = 349.1856

EPHEMERIS_TYPE = 0
CLASSIFICATION_TYPE = U
NORAD_CAT_ID   = 66907
ELEMENT_SET_NO = 999
REV_AT_EPOCH   = 1326
BSTAR          = .10980368E-2
MEAN_MOTION_DOT = .113275E-2
MEAN_MOTION_DDOT = 0

CCSDS_OMM_VERS = 2.0
CREATION_DATE  = 
ORIGINATOR     = 

OBJECT_NAME    = ISS OBJECT XU
OBJECT_ID      = 1998-067XU
CENTER_NAME    = EARTH
REF_FRAME      = TEME
TIME_SYSTEM    = UTC
MEAN_ELEMENT_THEORY = SGP/SGP4

EPOCH          = 2026-02-25T11:11:52.411776
MEAN_MOTION    = 15.65570792
ECCENTRICITY   = .00040141
INCLINATION    = 51.6256
RA_OF_ASC_NODE = 127.7799
ARG_OF_PERICENTER = 13.6188
MEAN_ANOMALY   = 346.4915

EPHEMERIS_TYPE = 0
CLASSIFICATION_TYPE = U
NORAD_CAT_ID   = 66908
ELEMENT_SET_NO = 999
REV_AT_EPOCH   = 1326
BSTAR          = .10967783E-2
MEAN_MOTION_DOT = .113463E-2
MEAN_MOTION_DDOT = 0

CCSDS_OMM_VERS = 2.0
CREATION_DATE  = 
ORIGINATOR     = 

OBJECT_NAME    = SILVERSAT
OBJECT_ID      = 1998-067XV
CENTER_NAME    = EARTH
REF_FRAME      = TEME
TIME_SYSTEM    = UTC
MEAN_ELEMENT_THEORY = SGP/SGP4

EPOCH          = 2026-02-25T11:40:55.603488
MEAN_MOTION    = 15.67641974
ECCENTRICITY   = .0004851
INCLINATION    = 51.6250
RA_OF_ASC_NODE = 127.1648
ARG_OF_PERICENTER = 9.1983
MEAN_ANOMALY   = 350.9101

EPHEMERIS_TYPE = 0
CLASSIFICATION_TYPE = U
NORAD_CAT_ID   = 66909
ELEMENT_SET_NO = 999
REV_AT_EPOCH   = 1327
BSTAR          = .12222508E-2
MEAN_MOTION_DOT = .138005E-2
MEAN_MOTION_DDOT = 0

